CCSDS_OMM_VERS = 2.0
CREATION_DATE  = 
ORIGINATOR     = 

OBJECT_NAME    = COSMOS 2600
OBJECT_ID      = 2026-023A
CENTER_NAME    = EARTH
REF_FRAME      = TEME
TIME_SYSTEM    = UTC
MEAN_ELEMENT_THEORY = SGP/SGP4

EPOCH          = 2026-03-06T19:20:53.191680
MEAN_MOTION    = 15.83551027
ECCENTRICITY   = .0002124
INCLINATION    = 96.6427
RA_OF_ASC_NODE = 141.5413
ARG_OF_PERICENTER = 345.6628
MEAN_ANOMALY   = 14.4583

EPHEMERIS_TYPE = 0
CLASSIFICATION_TYPE = U
NORAD_CAT_ID   = 67674
ELEMENT_SET_NO = 999
REV_AT_EPOCH   = 459
BSTAR          = .40148E-3
MEAN_MOTION_DOT = .88018E-3
MEAN_MOTION_DDOT = 0

CCSDS_OMM_VERS = 2.0
CREATION_DATE  = 
ORIGINATOR     = 

OBJECT_NAME    = 2026-023B
OBJECT_ID      = 2026-023B
CENTER_NAME    = EARTH
REF_FRAME      = TEME
TIME_SYSTEM    = UTC
MEAN_ELEMENT_THEORY = SGP/SGP4

EPOCH          = 2026-03-06T19:54:07.328736
MEAN_MOTION    = 15.22910737
ECCENTRICITY   = .001933
INCLINATION    = 96.6357
RA_OF_ASC_NODE = 139.1082
ARG_OF_PERICENTER = 141.8530
MEAN_ANOMALY   = 218.4081

EPHEMERIS_TYPE = 0
CLASSIFICATION_TYPE = U
NORAD_CAT_ID   = 67675
ELEMENT_SET_NO = 999
REV_AT_EPOCH   = 442
BSTAR          = .58537E-3
MEAN_MOTION_DOT = .13752E-3
MEAN_MOTION_DDOT = 0

CCSDS_OMM_VERS = 2.0
CREATION_DATE  = 
ORIGINATOR     = 

OBJECT_NAME    = 2026-023C
OBJECT_ID      = 2026-023C
CENTER_NAME    = EARTH
REF_FRAME      = TEME
TIME_SYSTEM    = UTC
MEAN_ELEMENT_THEORY = SGP/SGP4

EPOCH          = 2026-03-06T19:51:58.109760
MEAN_MOTION    = 15.23025576
ECCENTRICITY   = .002033
INCLINATION    = 96.6392
RA_OF_ASC_NODE = 139.1316
ARG_OF_PERICENTER = 132.2550
MEAN_ANOMALY   = 228.0418

EPHEMERIS_TYPE = 0
CLASSIFICATION_TYPE = U
NORAD_CAT_ID   = 67676
ELEMENT_SET_NO = 999
REV_AT_EPOCH   = 458
BSTAR          = .67342E-3
MEAN_MOTION_DOT = .15896E-3
MEAN_MOTION_DDOT = 0

CCSDS_OMM_VERS = 2.0
CREATION_DATE  = 
ORIGINATOR     = 

OBJECT_NAME    = 2026-023D
OBJECT_ID      = 2026-023D
CENTER_NAME    = EARTH
REF_FRAME      = TEME
TIME_SYSTEM    = UTC
MEAN_ELEMENT_THEORY = SGP/SGP4

EPOCH          = 2026-03-06T19:55:58.105632
MEAN_MOTION    = 15.22832982
ECCENTRICITY   = .0020585
INCLINATION    = 96.6422
RA_OF_ASC_NODE = 139.1207
ARG_OF_PERICENTER = 137.0558
MEAN_ANOMALY   = 223.2292

EPHEMERIS_TYPE = 0
CLASSIFICATION_TYPE = U
NORAD_CAT_ID   = 67677
ELEMENT_SET_NO = 999
REV_AT_EPOCH   = 441
BSTAR          = .56983E-3
MEAN_MOTION_DOT = .13363E-3
MEAN_MOTION_DDOT = 0

CCSDS_OMM_VERS = 2.0
CREATION_DATE  = 
ORIGINATOR     = 

OBJECT_NAME    = 2026-023E
OBJECT_ID      = 2026-023E
CENTER_NAME    = EARTH
REF_FRAME      = TEME
TIME_SYSTEM    = UTC
MEAN_ELEMENT_THEORY = SGP/SGP4

EPOCH          = 2026-03-06T19:52:38.088768
MEAN_MOTION    = 15.23014406
ECCENTRICITY   = .0020314
INCLINATION    = 96.6316
RA_OF_ASC_NODE = 139.0986
ARG_OF_PERICENTER = 136.5336
MEAN_ANOMALY   = 223.7508

EPHEMERIS_TYPE = 0
CLASSIFICATION_TYPE = U
NORAD_CAT_ID   = 67678
ELEMENT_SET_NO = 999
REV_AT_EPOCH   = 441
BSTAR          = .69603E-3
MEAN_MOTION_DOT = .16428E-3
MEAN_MOTION_DDOT = 0

CCSDS_OMM_VERS = 2.0
CREATION_DATE  = 
ORIGINATOR     = 

OBJECT_NAME    = 2026-023F
OBJECT_ID      = 2026-023F
CENTER_NAME    = EARTH
REF_FRAME      = TEME
TIME_SYSTEM    = UTC
MEAN_ELEMENT_THEORY = SGP/SGP4

EPOCH          = 2026-03-06T21:23:17.661696
MEAN_MOTION    = 15.23173915
ECCENTRICITY   = .0022171
INCLINATION    = 96.6325
RA_OF_ASC_NODE = 141.6573
ARG_OF_PERICENTER = 131.1861
MEAN_ANOMALY   = 229.1295

EPHEMERIS_TYPE = 0
CLASSIFICATION_TYPE = U
NORAD_CAT_ID   = 67679
ELEMENT_SET_NO = 999
REV_AT_EPOCH   = 441
BSTAR          = .77874E-3
MEAN_MOTION_DOT = .18499E-3
MEAN_MOTION_DDOT = 0

CCSDS_OMM_VERS = 2.0
CREATION_DATE  = 
ORIGINATOR     = 

OBJECT_NAME    = 2026-023G
OBJECT_ID      = 2026-023G
CENTER_NAME    = EARTH
REF_FRAME      = TEME
TIME_SYSTEM    = UTC
MEAN_ELEMENT_THEORY = SGP/SGP4

EPOCH          = 2026-03-06T21:24:23.827680
MEAN_MOTION    = 15.23132834
ECCENTRICITY   = .002368
INCLINATION    = 96.6253
RA_OF_ASC_NODE = 141.6373
ARG_OF_PERICENTER = 127.8269
MEAN_ANOMALY   = 232.5118

EPHEMERIS_TYPE = 0
CLASSIFICATION_TYPE = U
NORAD_CAT_ID   = 67680
ELEMENT_SET_NO = 999
REV_AT_EPOCH   = 441
BSTAR          = .77244E-3
MEAN_MOTION_DOT = .18344E-3
MEAN_MOTION_DDOT = 0

CCSDS_OMM_VERS = 2.0
CREATION_DATE  = 
ORIGINATOR     = 

OBJECT_NAME    = 2026-023H
OBJECT_ID      = 2026-023H
CENTER_NAME    = EARTH
REF_FRAME      = TEME
TIME_SYSTEM    = UTC
MEAN_ELEMENT_THEORY = SGP/SGP4

EPOCH          = 2026-03-06T21:24:43.663392
MEAN_MOTION    = 15.23051746
ECCENTRICITY   = .002379
INCLINATION    = 96.6398
RA_OF_ASC_NODE = 141.6727
ARG_OF_PERICENTER = 127.1766
MEAN_ANOMALY   = 233.1650

EPHEMERIS_TYPE = 0
CLASSIFICATION_TYPE = U
NORAD_CAT_ID   = 67681
ELEMENT_SET_NO = 999
REV_AT_EPOCH   = 441
BSTAR          = .63669E-3
MEAN_MOTION_DOT = .15068E-3
MEAN_MOTION_DDOT = 0

CCSDS_OMM_VERS = 2.0
CREATION_DATE  = 
ORIGINATOR     = 

OBJECT_NAME    = 2026-023J
OBJECT_ID      = 2026-023J
CENTER_NAME    = EARTH
REF_FRAME      = TEME
TIME_SYSTEM    = UTC
MEAN_ELEMENT_THEORY = SGP/SGP4

EPOCH          = 2026-03-06T21:22:50.323872
MEAN_MOTION    = 15.23158363
ECCENTRICITY   = .0023864
INCLINATION    = 96.6352
RA_OF_ASC_NODE = 141.6758
ARG_OF_PERICENTER = 123.9939
MEAN_ANOMALY   = 236.3572

EPHEMERIS_TYPE = 0
CLASSIFICATION_TYPE = U
NORAD_CAT_ID   = 67682
ELEMENT_SET_NO = 999
REV_AT_EPOCH   = 441
BSTAR          = .65686E-3
MEAN_MOTION_DOT = .15598E-3
MEAN_MOTION_DDOT = 0

CCSDS_OMM_VERS = 2.0
CREATION_DATE  = 
ORIGINATOR     = 

OBJECT_NAME    = ISS OBJECT XZ
OBJECT_ID      = 1998-067XZ
CENTER_NAME    = EARTH
REF_FRAME      = TEME
TIME_SYSTEM    = UTC
MEAN_ELEMENT_THEORY = SGP/SGP4

EPOCH          = 2026-03-06T10:37:58.419264
MEAN_MOTION    = 15.51523335
ECCENTRICITY   = .00094596
INCLINATION    = 51.6308
RA_OF_ASC_NODE = 87.9775
ARG_OF_PERICENTER = 174.9626
MEAN_ANOMALY   = 185.1460

EPHEMERIS_TYPE = 0
CLASSIFICATION_TYPE = U
NORAD_CAT_ID   = 67683
ELEMENT_SET_NO = 999
REV_AT_EPOCH   = 428
BSTAR          = .67173175E-3
MEAN_MOTION_DOT = .40277E-3
MEAN_MOTION_DDOT = 0

CCSDS_OMM_VERS = 2.0
CREATION_DATE  = 
ORIGINATOR     = 

OBJECT_NAME    = GXIBA-1
OBJECT_ID      = 1998-067YA
CENTER_NAME    = EARTH
REF_FRAME      = TEME
TIME_SYSTEM    = UTC
MEAN_ELEMENT_THEORY = SGP/SGP4

EPOCH          = 2026-03-06T08:33:09.123840
MEAN_MOTION    = 15.53698977
ECCENTRICITY   = .00109321
INCLINATION    = 51.6296
RA_OF_ASC_NODE = 88.1497
ARG_OF_PERICENTER = 164.4811
MEAN_ANOMALY   = 195.6517

EPHEMERIS_TYPE = 0
CLASSIFICATION_TYPE = U
NORAD_CAT_ID   = 67684
ELEMENT_SET_NO = 999
REV_AT_EPOCH   = 427
BSTAR          = .11727792E-2
MEAN_MOTION_DOT = .7687E-3
MEAN_MOTION_DDOT = 0

CCSDS_OMM_VERS = 2.0
CREATION_DATE  = 
ORIGINATOR     = 

OBJECT_NAME    = CORAL
OBJECT_ID      = 1998-067YB
CENTER_NAME    = EARTH
REF_FRAME      = TEME
TIME_SYSTEM    = UTC
MEAN_ELEMENT_THEORY = SGP/SGP4

EPOCH          = 2026-03-06T08:59:53.384352
MEAN_MOTION    = 15.51836923
ECCENTRICITY   = .00113315
INCLINATION    = 51.6303
RA_OF_ASC_NODE = 88.2731
ARG_OF_PERICENTER = 171.0094
MEAN_ANOMALY   = 189.1100

EPHEMERIS_TYPE = 0
CLASSIFICATION_TYPE = U
NORAD_CAT_ID   = 67685
ELEMENT_SET_NO = 999
REV_AT_EPOCH   = 427
BSTAR          = .72551429E-3
MEAN_MOTION_DOT = .4409E-3
MEAN_MOTION_DDOT = 0

